STARLINK-36404          
1 67664U 26022S   26048.25002315 -.00090653  00000+0 -61204-3 0  9999
2 67664  97.2841  81.2500 0000618  83.2735 271.8109 15.75241396  3577
STARLINK-36399          
1 67665U 26022T   26048.25002315 -.00042771  00000+0 -28690-3 0  9990
2 67665  97.2839  81.2528 0000956  85.1860 273.9077 15.75224965  3570
STARLINK-36365          
1 67666U 26022U   26048.25002315 -.00150192  00000+0 -10209-2 0  9994
2 67666  97.2834  81.2563 0001241  70.4188 296.6616 15.75256517  3606
STARLINK-36622          
1 67667U 26022V   26048.25002315 -.00107043  00000+0 -72520-3 0  9997
2 67667  97.2841  81.2603 0001362  64.6397 312.4299 15.75209032  3605
STARLINK-36625          
1 67668U 26022W   26048.25002315 -.00052069  00000+0 -35004-3 0  9991
2 67668  97.2838  81.2632 0001335  71.1394 313.9542 15.75210124  3605
STARLINK-36639          
1 67669U 26022X   26048.25002315 -.00015731  00000+0 -10479-3 0  9996
2 67669  97.2831  81.2674 0001479  87.2268 307.8528 15.75191394  3605
STARLINK-36596          
1 67670U 26022Y   26048.25002315  .00067489  00000+0  45053-3 0  9999
2 67670  97.2834  81.2715 0001551  89.5539 315.5536 15.75150781  3603
STARLINK-36297          
1 67671U 26022Z   26048.25002315  .00032359  00000+0  21722-3 0  9995
2 67671  97.2837  81.2763 0000974  75.8890 341.2121 15.75166843  3608
STARLINK-36616          
1 67672U 26022AA  26048.25002315  .00018824  00000+0  12685-3 0  9995
2 67672  97.2828  81.2729 0001280  78.3538 330.7366 15.75180395  3601
COSMOS 2600             
1 67674U 26023A   26048.23378429  .00073361  00000+0  34956-3 0  9990
2 67674  96.6479 124.5153 0001552  58.4066 301.7357 15.82658846  1815
2026-023B               
1 67675U 26023B   26048.28290613  .00012894  00000+0  55665-3 0  9998
2 67675  96.6401 123.5971 0017846 203.1090 156.9348 15.22471714  1751
2026-023C               
1 67676U 26023C   26048.28246569  .00016731  00000+0  71915-3 0  9990
2 67676  96.6437 123.6112 0019046 192.8574 167.2182 15.22546859  1916
