CCSDS_OMM_VERS = 2.0
CREATION_DATE  = 
ORIGINATOR     = 

OBJECT_NAME    = STARLINK-36404
OBJECT_ID      = 2026-022S
CENTER_NAME    = EARTH
REF_FRAME      = TEME
TIME_SYSTEM    = UTC
MEAN_ELEMENT_THEORY = SGP/SGP4

EPOCH          = 2026-02-17T06:00:02.000160
MEAN_MOTION    = 15.75241396
ECCENTRICITY   = .00006183
INCLINATION    = 97.2841
RA_OF_ASC_NODE = 81.2500
ARG_OF_PERICENTER = 83.2735
MEAN_ANOMALY   = 271.8109

EPHEMERIS_TYPE = 0
CLASSIFICATION_TYPE = U
NORAD_CAT_ID   = 67664
ELEMENT_SET_NO = 999
REV_AT_EPOCH   = 357
BSTAR          = -.6120437E-3
MEAN_MOTION_DOT = -.90653E-3
MEAN_MOTION_DDOT = 0

CCSDS_OMM_VERS = 2.0
CREATION_DATE  = 
ORIGINATOR     = 

OBJECT_NAME    = STARLINK-36399
OBJECT_ID      = 2026-022T
CENTER_NAME    = EARTH
REF_FRAME      = TEME
TIME_SYSTEM    = UTC
MEAN_ELEMENT_THEORY = SGP/SGP4

EPOCH          = 2026-02-17T06:00:02.000160
MEAN_MOTION    = 15.75224965
ECCENTRICITY   = .00009564
INCLINATION    = 97.2839
RA_OF_ASC_NODE = 81.2528
ARG_OF_PERICENTER = 85.1860
MEAN_ANOMALY   = 273.9077

EPHEMERIS_TYPE = 0
CLASSIFICATION_TYPE = U
NORAD_CAT_ID   = 67665
ELEMENT_SET_NO = 999
REV_AT_EPOCH   = 357
BSTAR          = -.28689596E-3
MEAN_MOTION_DOT = -.42771E-3
MEAN_MOTION_DDOT = 0

CCSDS_OMM_VERS = 2.0
CREATION_DATE  = 
ORIGINATOR     = 

OBJECT_NAME    = STARLINK-36365
OBJECT_ID      = 2026-022U
CENTER_NAME    = EARTH
REF_FRAME      = TEME
TIME_SYSTEM    = UTC
MEAN_ELEMENT_THEORY = SGP/SGP4

EPOCH          = 2026-02-17T06:00:02.000160
MEAN_MOTION    = 15.75256517
ECCENTRICITY   = .00012415
INCLINATION    = 97.2834
RA_OF_ASC_NODE = 81.2563
ARG_OF_PERICENTER = 70.4188
MEAN_ANOMALY   = 296.6616

EPHEMERIS_TYPE = 0
CLASSIFICATION_TYPE = U
NORAD_CAT_ID   = 67666
ELEMENT_SET_NO = 999
REV_AT_EPOCH   = 360
BSTAR          = -.10209157E-2
MEAN_MOTION_DOT = -.150192E-2
MEAN_MOTION_DDOT = 0

CCSDS_OMM_VERS = 2.0
CREATION_DATE  = 
ORIGINATOR     = 

OBJECT_NAME    = STARLINK-36622
OBJECT_ID      = 2026-022V
CENTER_NAME    = EARTH
REF_FRAME      = TEME
TIME_SYSTEM    = UTC
MEAN_ELEMENT_THEORY = SGP/SGP4

EPOCH          = 2026-02-17T06:00:02.000160
MEAN_MOTION    = 15.75209032
ECCENTRICITY   = .00013626
INCLINATION    = 97.2841
RA_OF_ASC_NODE = 81.2603
ARG_OF_PERICENTER = 64.6397
MEAN_ANOMALY   = 312.4299

EPHEMERIS_TYPE = 0
CLASSIFICATION_TYPE = U
NORAD_CAT_ID   = 67667
ELEMENT_SET_NO = 999
REV_AT_EPOCH   = 360
BSTAR          = -.72519892E-3
MEAN_MOTION_DOT = -.107043E-2
MEAN_MOTION_DDOT = 0

CCSDS_OMM_VERS = 2.0
CREATION_DATE  = 
ORIGINATOR     = 

OBJECT_NAME    = STARLINK-36625
OBJECT_ID      = 2026-022W
CENTER_NAME    = EARTH
REF_FRAME      = TEME
TIME_SYSTEM    = UTC
MEAN_ELEMENT_THEORY = SGP/SGP4

EPOCH          = 2026-02-17T06:00:02.000160
MEAN_MOTION    = 15.75210124
ECCENTRICITY   = .00013357
INCLINATION    = 97.2838
RA_OF_ASC_NODE = 81.2632
ARG_OF_PERICENTER = 71.1394
MEAN_ANOMALY   = 313.9542

EPHEMERIS_TYPE = 0
CLASSIFICATION_TYPE = U
NORAD_CAT_ID   = 67668
ELEMENT_SET_NO = 999
REV_AT_EPOCH   = 360
BSTAR          = -.35004175E-3
MEAN_MOTION_DOT = -.52069E-3
MEAN_MOTION_DDOT = 0

CCSDS_OMM_VERS = 2.0
CREATION_DATE  = 
ORIGINATOR     = 

OBJECT_NAME    = STARLINK-36639
OBJECT_ID      = 2026-022X
CENTER_NAME    = EARTH
REF_FRAME      = TEME
TIME_SYSTEM    = UTC
MEAN_ELEMENT_THEORY = SGP/SGP4

EPOCH          = 2026-02-17T06:00:02.000160
MEAN_MOTION    = 15.75191394
ECCENTRICITY   = .0001479
INCLINATION    = 97.2831
RA_OF_ASC_NODE = 81.2674
ARG_OF_PERICENTER = 87.2268
MEAN_ANOMALY   = 307.8528

EPHEMERIS_TYPE = 0
CLASSIFICATION_TYPE = U
NORAD_CAT_ID   = 67669
ELEMENT_SET_NO = 999
REV_AT_EPOCH   = 360
BSTAR          = -.1047853E-3
MEAN_MOTION_DOT = -.15731E-3
MEAN_MOTION_DDOT = 0

CCSDS_OMM_VERS = 2.0
CREATION_DATE  = 
ORIGINATOR     = 

OBJECT_NAME    = STARLINK-36596
OBJECT_ID      = 2026-022Y
CENTER_NAME    = EARTH
REF_FRAME      = TEME
TIME_SYSTEM    = UTC
MEAN_ELEMENT_THEORY = SGP/SGP4

EPOCH          = 2026-02-17T06:00:02.000160
MEAN_MOTION    = 15.75150781
ECCENTRICITY   = .00015517
INCLINATION    = 97.2834
RA_OF_ASC_NODE = 81.2715
ARG_OF_PERICENTER = 89.5539
MEAN_ANOMALY   = 315.5536

EPHEMERIS_TYPE = 0
CLASSIFICATION_TYPE = U
NORAD_CAT_ID   = 67670
ELEMENT_SET_NO = 999
REV_AT_EPOCH   = 360
BSTAR          = .45053156E-3
MEAN_MOTION_DOT = .67489E-3
MEAN_MOTION_DDOT = 0

CCSDS_OMM_VERS = 2.0
CREATION_DATE  = 
ORIGINATOR     = 

OBJECT_NAME    = STARLINK-36297
OBJECT_ID      = 2026-022Z
CENTER_NAME    = EARTH
REF_FRAME      = TEME
TIME_SYSTEM    = UTC
MEAN_ELEMENT_THEORY = SGP/SGP4

EPOCH          = 2026-02-17T06:00:02.000160
MEAN_MOTION    = 15.75166843
ECCENTRICITY   = .00009746
INCLINATION    = 97.2837
RA_OF_ASC_NODE = 81.2763
ARG_OF_PERICENTER = 75.8890
MEAN_ANOMALY   = 341.2121

EPHEMERIS_TYPE = 0
CLASSIFICATION_TYPE = U
NORAD_CAT_ID   = 67671
ELEMENT_SET_NO = 999
REV_AT_EPOCH   = 360
BSTAR          = .21721896E-3
MEAN_MOTION_DOT = .32359E-3
MEAN_MOTION_DDOT = 0

CCSDS_OMM_VERS = 2.0
CREATION_DATE  = 
ORIGINATOR     = 

OBJECT_NAME    = STARLINK-36616
OBJECT_ID      = 2026-022AA
CENTER_NAME    = EARTH
REF_FRAME      = TEME
TIME_SYSTEM    = UTC
MEAN_ELEMENT_THEORY = SGP/SGP4

EPOCH          = 2026-02-17T06:00:02.000160
MEAN_MOTION    = 15.75180395
ECCENTRICITY   = .00012807
INCLINATION    = 97.2828
RA_OF_ASC_NODE = 81.2729
ARG_OF_PERICENTER = 78.3538
MEAN_ANOMALY   = 330.7366

EPHEMERIS_TYPE = 0
CLASSIFICATION_TYPE = U
NORAD_CAT_ID   = 67672
ELEMENT_SET_NO = 999
REV_AT_EPOCH   = 360
BSTAR          = .12684973E-3
MEAN_MOTION_DOT = .18824E-3
MEAN_MOTION_DDOT = 0

CCSDS_OMM_VERS = 2.0
CREATION_DATE  = 
ORIGINATOR     = 

OBJECT_NAME    = COSMOS 2600
OBJECT_ID      = 2026-023A
CENTER_NAME    = EARTH
REF_FRAME      = TEME
TIME_SYSTEM    = UTC
MEAN_ELEMENT_THEORY = SGP/SGP4

EPOCH          = 2026-02-17T05:36:38.962656
MEAN_MOTION    = 15.82658846
ECCENTRICITY   = .00015527
INCLINATION    = 96.6479
RA_OF_ASC_NODE = 124.5153
ARG_OF_PERICENTER = 58.4066
MEAN_ANOMALY   = 301.7357

EPHEMERIS_TYPE = 0
CLASSIFICATION_TYPE = U
NORAD_CAT_ID   = 67674
ELEMENT_SET_NO = 999
REV_AT_EPOCH   = 181
BSTAR          = .34955994E-3
MEAN_MOTION_DOT = .73361E-3
MEAN_MOTION_DDOT = 0

CCSDS_OMM_VERS = 2.0
CREATION_DATE  = 
ORIGINATOR     = 

OBJECT_NAME    = 2026-023B
OBJECT_ID      = 2026-023B
CENTER_NAME    = EARTH
REF_FRAME      = TEME
TIME_SYSTEM    = UTC
MEAN_ELEMENT_THEORY = SGP/SGP4

EPOCH          = 2026-02-17T06:47:23.089632
MEAN_MOTION    = 15.22471714
ECCENTRICITY   = .00178467
INCLINATION    = 96.6401
RA_OF_ASC_NODE = 123.5971
ARG_OF_PERICENTER = 203.1090
MEAN_ANOMALY   = 156.9348

EPHEMERIS_TYPE = 0
CLASSIFICATION_TYPE = U
NORAD_CAT_ID   = 67675
ELEMENT_SET_NO = 999
REV_AT_EPOCH   = 175
BSTAR          = .556649E-3
MEAN_MOTION_DOT = .12894E-3
MEAN_MOTION_DDOT = 0

CCSDS_OMM_VERS = 2.0
CREATION_DATE  = 
ORIGINATOR     = 

OBJECT_NAME    = 2026-023C
OBJECT_ID      = 2026-023C
CENTER_NAME    = EARTH
REF_FRAME      = TEME
TIME_SYSTEM    = UTC
MEAN_ELEMENT_THEORY = SGP/SGP4

EPOCH          = 2026-02-17T06:46:45.035616
MEAN_MOTION    = 15.22546859
ECCENTRICITY   = .00190462
INCLINATION    = 96.6437
RA_OF_ASC_NODE = 123.6112
ARG_OF_PERICENTER = 192.8574
MEAN_ANOMALY   = 167.2182

EPHEMERIS_TYPE = 0
CLASSIFICATION_TYPE = U
NORAD_CAT_ID   = 67676
ELEMENT_SET_NO = 999
REV_AT_EPOCH   = 191
BSTAR          = .71914717E-3
MEAN_MOTION_DOT = .16731E-3
MEAN_MOTION_DDOT = 0

